{
    "links": {
        "self": "http://www.neowsapp.com/rest/v1/neo/3841746?api_key=iIulBulltgU6a56xZRHN4H3l9WmuAYTsLGpBGhQ2"
    },
    "id": "3841746",
    "neo_reference_id": "3841746",
    "name": "(2019 JH2)",
    "designation": "2019 JH2",
    "nasa_jpl_url": "http://ssd.jpl.nasa.gov/sbdb.cgi?sstr=3841746",
    "absolute_magnitude_h": 23.4,
    "estimated_diameter": {
        "kilometers": {
            "estimated_diameter_min": 0.0555334912,
            "estimated_diameter_max": 0.1241766613
        },
        "meters": {
            "estimated_diameter_min": 55.5334911581,
            "estimated_diameter_max": 124.1766612574
        },
        "miles": {
            "estimated_diameter_min": 0.0345069009,
            "estimated_diameter_max": 0.0771597762
        },
        "feet": {
            "estimated_diameter_min": 182.1964991311,
            "estimated_diameter_max": 407.4037573197
        }
    },
    "is_potentially_hazardous_asteroid": false,
    "close_approach_data": [
        {
            "close_approach_date": "2019-04-28",
            "close_approach_date_full": "2019-Apr-28 17:37",
            "epoch_date_close_approach": 1556473020000,
            "relative_velocity": {
                "kilometers_per_second": "16.5854584314",
                "kilometers_per_hour": "59707.6503529079",
                "miles_per_hour": "37100.0119651166"
            },
            "miss_distance": {
                "astronomical": "0.2054000699",
                "lunar": "79.9006271911",
                "kilometers": "30727412.954891113",
                "miles": "19093129.0500108394"
            },
            "orbiting_body": "Earth"
        }
    ],
    "orbital_data": {
        "orbit_id": "1",
        "orbit_determination_date": "2019-05-05 16:12:07",
        "first_observation_date": "2019-05-03",
        "last_observation_date": "2019-05-05",
        "data_arc_in_days": 2,
        "observations_used": 20,
        "orbit_uncertainty": "9",
        "minimum_orbit_intersection": ".204377",
        "jupiter_tisserand_invariant": "4.103",
        "epoch_osculation": "2458607.5",
        "eccentricity": ".2937546352856567",
        "semi_major_axis": "1.629861444879011",
        "inclination": "31.65368689297462",
        "ascending_node_longitude": "42.44524673070377",
        "orbital_period": "760.0190122885402",
        "perihelion_distance": "1.151082090572424",
        "perihelion_argument": "138.396014254312",
        "aphelion_distance": "2.108640799185599",
        "perihelion_time": "2458559.964599283136",
        "mean_anomaly": "22.51620549141501",
        "mean_motion": ".4736723610584185",
        "equinox": "J2000",
        "orbit_class": {
            "orbit_class_type": "AMO",
            "orbit_class_description": "Near-Earth asteroid orbits similar to that of 1221 Amor",
            "orbit_class_range": "1.017 AU < q (perihelion) < 1.3 AU"
        }
    },
    "is_sentry_object": false
}